{
  "norad_id": 52469,
  "name": "STARLINK-3828",
  "history": [
    {
      "epoch": "2026-03-28T22:24:15.289056",
      "apogee_km": 540.7539240177775,
      "perigee_km": 538.7113538281892,
      "latitude_deg": 17.200637547105657,
      "longitude_deg": -123.48301216005348,
      "semi_major_axis_km": 6917.869638922983,
      "eccentricity": 0.00014763,
      "inclination_deg": 53.2186,
      "raan_deg": 332.7396,
      "arg_perigee_deg": 85.066,
      "mean_anomaly_deg": 275.05,
      "mean_motion_rev_day": 15.08843517
    },
    {
      "epoch": "2026-03-29T01:35:01.550688",
      "apogee_km": 540.7099871660066,
      "perigee_km": 538.754997247509,
      "latitude_deg": 33.990067563846246,
      "longitude_deg": -110.7649436800275,
      "semi_major_axis_km": 6917.869492206758,
      "eccentricity": 0.0001413,
      "inclination_deg": 53.2182,
      "raan_deg": 332.145,
      "arg_perigee_deg": 85.5255,
      "mean_anomaly_deg": 274.5898,
      "mean_motion_rev_day": 15.08843565
    }
  ]
}